GOES 1 (SMS-C) [-]      
1 08366U 75100A   22025.66065130 -.00000107  00000+0  00000+0 0  9991
2 08366   8.6191 297.5555 0002123 330.5257 354.1905  1.00316239168985
GOES 2 [-]              
1 10061U 77048A   22025.67730604 -.00000270  00000+0  00000+0 0  9996
2 10061  10.1687 308.6285 0013802  17.5354 195.3585  0.99401912 30334
GOES 3 [-]              
1 10953U 78062A   22026.00327198  .00000055  00000+0  00000+0 0  9991
2 10953  10.4805 313.0010 0001835  74.6019 129.7919  0.99360589112663
GOES 4 [-]              
1 11964U 80074A   22025.63068091 -.00000206  00000+0  00000+0 0  9991
2 11964  11.4243 316.8145 0033567  66.0153 136.8620  0.99234101111526
GOES 5 [-]              
1 12472U 81049A   22026.09166986 -.00000023  00000+0  00000+0 0  9999
2 12472  12.1969 328.0125 0001118   0.8142  71.5750  1.00335816106888
GOES 6 [-]              
1 14050U 83041A   22025.54763257 -.00000085  00000+0  00000+0 0  9998
2 14050  12.7228 333.2674 0002262 112.4503 127.9795  1.00327002199936
GOES 7 [-]              
1 17561U 87022A   22025.42828865 -.00000059  00000+0  00000+0 0  9996
2 17561  14.3592 349.7439 0006031  37.0988 331.1954  0.99888962110940
GOES 8 [-]              
1 23051U 94022A   22025.76835736 -.00000234  00000+0  00000+0 0  9992
2 23051  13.0544  25.2146 0006409 355.8444   5.1756  0.98907485108274
GOES 9 [-]              
1 23581U 95025A   22025.49146227 -.00000177  00000+0  00000+0 0  9990
2 23581  12.5452  25.4674 0003816  75.6920 146.2268  0.98800305 96912
GOES 10 [-]             
1 24786U 97019A   22025.80525071 -.00000219  00000+0  00000+0 0  9993
2 24786  11.2581  31.5318 0025411 201.9066 351.7484  0.99126793 90170
GOES 11 [-]             
1 26352U 00022A   22025.64354333  .00000042  00000+0  00000+0 0  9998
2 26352   8.3823  60.4536 0002444 247.4148 127.4710  0.99039468 36595
GOES 12 [-]             
1 26871U 01031A   22025.55835815 -.00000199  00000+0  00000+0 0  9998
2 26871   9.2622  49.1126 0007791 304.5856 275.7570  0.99137637 74868
EWS-G1 (GOES 13) [+]    
1 29155U 06018A   22026.28938397  .00000044  00000+0  00000+0 0  9994
2 29155   0.4252  99.4829 0005209 152.9539  39.0850  1.00274954 57434
GOES 14 [B]             
1 35491U 09033A   22026.67169598 -.00000083  00000+0  00000+0 0  9990
2 35491   0.0508 310.6165 0013836 276.7684  35.8965  1.00270399 46085
GOES 15 [B]             
1 36411U 10008A   22026.65149677  .00000065  00000+0  00000+0 0  9990
2 36411   0.0682 264.2258 0001107 104.7204 223.1435  1.00272832 43595
GOES 16 [+]             
1 41866U 16071A   22026.40813115 -.00000238  00000+0  00000+0 0  9997
2 41866   0.0862 261.6701 0001153  94.0257 201.6760  1.00269103 19030
GOES 17 [+]             
1 43226U 18022A   22026.14063850  .00000108  00000+0  00000+0 0  9996
2 43226   0.0733 261.3450 0000397 126.2308  11.2234  1.00272280 14363
